{"config": {"view": {"continuousWidth": 300, "continuousHeight": 300}}, "layer": [{"mark": {"type": "bar"}, "encoding": {"tooltip": [{"field": "Zip", "type": "nominal"}, {"field": "stores", "type": "quantitative"}], "x": {"axis": {"values": [0, 1, 2, 3, 4, 5, 6, 7, 8, 9, 10, 11, 12]}, "field": "stores", "scale": {"domain": [0, 12]}, "title": "Number of grocery stores", "type": "quantitative"}, "y": {"field": "Zip", "sort": "-x", "title": "ZIP code", "type": "nominal"}}, "name": "view_2", "transform": [{"filter": {"param": "param_6"}}, {"window": [{"op": "rank", "field": "stores", "as": "rank"}], "sort": [{"field": "stores", "order": "descending"}]}, {"filter": "datum.rank <= 15"}]}, {"mark": {"type": "text", "align": "left", "baseline": "middle", "dx": 3}, "encoding": {"text": {"field": "stores", "type": "quantitative"}, "x": {"field": "stores", "type": "quantitative"}, "y": {"field": "Zip", "sort": "-x", "type": "nominal"}}, "transform": [{"filter": {"param": "param_6"}}, {"window": [{"op": "rank", "field": "stores", "as": "rank"}], "sort": [{"field": "stores", "order": "descending"}]}, {"filter": "datum.rank <= 15"}]}], "data": {"name": "data-c5f2a19f738dddddbc910bc4b70a6443"}, "height": 400, "params": [{"name": "param_6", "select": {"type": "point", "fields": ["New status"]}, "bind": {"input": "select", "options": ["CLOSED", "ONLINE ORDERS ONLY", "OPEN"], "name": "Store status: "}, "views": ["view_2"]}], "title": "Which Chicago ZIP codes have the most grocery stores by status?", "width": 500, "$schema": "https://vega.github.io/schema/vega-lite/v5.8.0.json", "datasets": {"data-c5f2a19f738dddddbc910bc4b70a6443": [{"New status": "CLOSED", "Zip": "60608-3719", "stores": 1}, {"New status": "CLOSED", "Zip": "60615-1612", "stores": 1}, {"New status": "CLOSED", "Zip": "60620-1728", "stores": 1}, {"New status": "CLOSED", "Zip": "60620-4246", "stores": 1}, {"New status": "CLOSED", "Zip": "60636", "stores": 1}, {"New status": "CLOSED", "Zip": "60639-1829", "stores": 1}, {"New status": "CLOSED", "Zip": "60639-4611", "stores": 1}, {"New status": "CLOSED", "Zip": "60647", "stores": 1}, {"New status": "CLOSED", "Zip": "60649-3999", "stores": 1}, {"New status": "CLOSED", "Zip": "60657-6017", "stores": 1}, {"New status": "ONLINE ORDERS ONLY", "Zip": "60614-2406", "stores": 1}, {"New status": "OPEN", "Zip": "60601", "stores": 3}, {"New status": "OPEN", "Zip": "60601-7412", "stores": 1}, {"New status": "OPEN", "Zip": "60603-2802", "stores": 1}, {"New status": "OPEN", "Zip": "60605", "stores": 1}, {"New status": "OPEN", "Zip": "60605-2159", "stores": 1}, {"New status": "OPEN", "Zip": "60605-2401", "stores": 1}, {"New status": "OPEN", "Zip": "60607", "stores": 1}, {"New status": "OPEN", "Zip": "60607-2905", "stores": 1}, {"New status": "OPEN", "Zip": "60607-4932", "stores": 1}, {"New status": "OPEN", "Zip": "60608", "stores": 10}, {"New status": "OPEN", "Zip": "60608-2040", "stores": 1}, {"New status": "OPEN", "Zip": "60608-4315", "stores": 1}, {"New status": "OPEN", "Zip": "60608-6107", "stores": 1}, {"New status": "OPEN", "Zip": "60609", "stores": 2}, {"New status": "OPEN", "Zip": "60609-1044", "stores": 1}, {"New status": "OPEN", "Zip": "60609-3236", "stores": 1}, {"New status": "OPEN", "Zip": "60609-4043", "stores": 1}, {"New status": "OPEN", "Zip": "60610", "stores": 5}, {"New status": "OPEN", "Zip": "60610-1746", "stores": 1}, {"New status": "OPEN", "Zip": "60610-3190", "stores": 1}, {"New status": "OPEN", "Zip": "60611", "stores": 2}, {"New status": "OPEN", "Zip": "60611-3315", "stores": 1}, {"New status": "OPEN", "Zip": "60611-4305", "stores": 1}, {"New status": "OPEN", "Zip": "60612", "stores": 1}, {"New status": "OPEN", "Zip": "60613", "stores": 2}, {"New status": "OPEN", "Zip": "60613-1497", "stores": 1}, {"New status": "OPEN", "Zip": "60613-3710", "stores": 1}, {"New status": "OPEN", "Zip": "60613-4316", "stores": 1}, {"New status": "OPEN", "Zip": "60614", "stores": 6}, {"New status": "OPEN", "Zip": "60614-1004", "stores": 1}, {"New status": "OPEN", "Zip": "60614-1006", "stores": 1}, {"New status": "OPEN", "Zip": "60614-3422", "stores": 1}, {"New status": "OPEN", "Zip": "60614-4902", "stores": 1}, {"New status": "OPEN", "Zip": "60615", "stores": 2}, {"New status": "OPEN", "Zip": "60615-4046", "stores": 1}, {"New status": "OPEN", "Zip": "60615-4115", "stores": 1}, {"New status": "OPEN", "Zip": "60616", "stores": 5}, {"New status": "OPEN", "Zip": "60616-4135", "stores": 1}, {"New status": "OPEN", "Zip": "60617", "stores": 5}, {"New status": "OPEN", "Zip": "60617-4707", "stores": 1}, {"New status": "OPEN", "Zip": "60617-4806", "stores": 1}, {"New status": "OPEN", "Zip": "60617-6355", "stores": 1}, {"New status": "OPEN", "Zip": "60618", "stores": 3}, {"New status": "OPEN", "Zip": "60618-1605", "stores": 1}, {"New status": "OPEN", "Zip": "60618-2902", "stores": 1}, {"New status": "OPEN", "Zip": "60618-4318", "stores": 1}, {"New status": "OPEN", "Zip": "60618-4635", "stores": 1}, {"New status": "OPEN", "Zip": "60618-5513", "stores": 1}, {"New status": "OPEN", "Zip": "60618-6012", "stores": 1}, {"New status": "OPEN", "Zip": "60619", "stores": 2}, {"New status": "OPEN", "Zip": "60619-1622", "stores": 1}, {"New status": "OPEN", "Zip": "60619-2724", "stores": 1}, {"New status": "OPEN", "Zip": "60620", "stores": 4}, {"New status": "OPEN", "Zip": "60620-1318", "stores": 1}, {"New status": "OPEN", "Zip": "60620-1338", "stores": 1}, {"New status": "OPEN", "Zip": "60620-4248", "stores": 1}, {"New status": "OPEN", "Zip": "60620-5121", "stores": 1}, {"New status": "OPEN", "Zip": "60620-5817", "stores": 1}, {"New status": "OPEN", "Zip": "60621-1902", "stores": 1}, {"New status": "OPEN", "Zip": "60621-2012", "stores": 1}, {"New status": "OPEN", "Zip": "60622", "stores": 1}, {"New status": "OPEN", "Zip": "60622-2145", "stores": 1}, {"New status": "OPEN", "Zip": "60622-3922", "stores": 1}, {"New status": "OPEN", "Zip": "60623", "stores": 6}, {"New status": "OPEN", "Zip": "60623-4713", "stores": 1}, {"New status": "OPEN", "Zip": "60624", "stores": 2}, {"New status": "OPEN", "Zip": "60624-2335", "stores": 1}, {"New status": "OPEN", "Zip": "60625", "stores": 3}, {"New status": "OPEN", "Zip": "60625-5612", "stores": 1}, {"New status": "OPEN", "Zip": "60626", "stores": 3}, {"New status": "OPEN", "Zip": "60626-1018", "stores": 1}, {"New status": "OPEN", "Zip": "60626-1626", "stores": 1}, {"New status": "OPEN", "Zip": "60626-5336", "stores": 1}, {"New status": "OPEN", "Zip": "60628", "stores": 2}, {"New status": "OPEN", "Zip": "60628-3804", "stores": 1}, {"New status": "OPEN", "Zip": "60629", "stores": 7}, {"New status": "OPEN", "Zip": "60629-5817", "stores": 1}, {"New status": "OPEN", "Zip": "60629-5891", "stores": 1}, {"New status": "OPEN", "Zip": "60630", "stores": 2}, {"New status": "OPEN", "Zip": "60630-2706", "stores": 1}, {"New status": "OPEN", "Zip": "60630-2747", "stores": 1}, {"New status": "OPEN", "Zip": "60630-3269", "stores": 1}, {"New status": "OPEN", "Zip": "60631", "stores": 1}, {"New status": "OPEN", "Zip": "60632", "stores": 6}, {"New status": "OPEN", "Zip": "60632-3042", "stores": 1}, {"New status": "OPEN", "Zip": "60632-4010", "stores": 1}, {"New status": "OPEN", "Zip": "60632-4035", "stores": 1}, {"New status": "OPEN", "Zip": "60632-4224", "stores": 1}, {"New status": "OPEN", "Zip": "60634", "stores": 3}, {"New status": "OPEN", "Zip": "60634-2459", "stores": 1}, {"New status": "OPEN", "Zip": "60634-5306", "stores": 1}, {"New status": "OPEN", "Zip": "60636-2019", "stores": 1}, {"New status": "OPEN", "Zip": "60636-3948", "stores": 1}, {"New status": "OPEN", "Zip": "60637", "stores": 3}, {"New status": "OPEN", "Zip": "60637-4126", "stores": 1}, {"New status": "OPEN", "Zip": "60638", "stores": 3}, {"New status": "OPEN", "Zip": "60638-2743", "stores": 1}, {"New status": "OPEN", "Zip": "60638-6402", "stores": 1}, {"New status": "OPEN", "Zip": "60639", "stores": 10}, {"New status": "OPEN", "Zip": "60639-1041", "stores": 1}, {"New status": "OPEN", "Zip": "60639-1828", "stores": 1}, {"New status": "OPEN", "Zip": "60639-2125", "stores": 1}, {"New status": "OPEN", "Zip": "60639-4529", "stores": 1}, {"New status": "OPEN", "Zip": "60640", "stores": 5}, {"New status": "OPEN", "Zip": "60640-1214", "stores": 1}, {"New status": "OPEN", "Zip": "60640-2311", "stores": 1}, {"New status": "OPEN", "Zip": "60640-5602", "stores": 1}, {"New status": "OPEN", "Zip": "60640-5660", "stores": 1}, {"New status": "OPEN", "Zip": "60641", "stores": 2}, {"New status": "OPEN", "Zip": "60641-2888", "stores": 1}, {"New status": "OPEN", "Zip": "60642-2532", "stores": 1}, {"New status": "OPEN", "Zip": "60643", "stores": 2}, {"New status": "OPEN", "Zip": "60643-4618", "stores": 1}, {"New status": "OPEN", "Zip": "60643-4904", "stores": 1}, {"New status": "OPEN", "Zip": "60644", "stores": 2}, {"New status": "OPEN", "Zip": "60644-5504", "stores": 1}, {"New status": "OPEN", "Zip": "60645", "stores": 2}, {"New status": "OPEN", "Zip": "60646", "stores": 2}, {"New status": "OPEN", "Zip": "60646-4302", "stores": 1}, {"New status": "OPEN", "Zip": "60647", "stores": 12}, {"New status": "OPEN", "Zip": "60647-2019", "stores": 1}, {"New status": "OPEN", "Zip": "60647-5423", "stores": 1}, {"New status": "OPEN", "Zip": "60649", "stores": 2}, {"New status": "OPEN", "Zip": "60651", "stores": 2}, {"New status": "OPEN", "Zip": "60651-1602", "stores": 1}, {"New status": "OPEN", "Zip": "60652-3596", "stores": 1}, {"New status": "OPEN", "Zip": "60653", "stores": 2}, {"New status": "OPEN", "Zip": "60654-4815", "stores": 1}, {"New status": "OPEN", "Zip": "60654-6402", "stores": 1}, {"New status": "OPEN", "Zip": "60655-2010", "stores": 1}, {"New status": "OPEN", "Zip": "60656-3617", "stores": 1}, {"New status": "OPEN", "Zip": "60656-4239", "stores": 1}, {"New status": "OPEN", "Zip": "60657", "stores": 2}, {"New status": "OPEN", "Zip": "60657-1825", "stores": 1}, {"New status": "OPEN", "Zip": "60657-2109", "stores": 1}, {"New status": "OPEN", "Zip": "60657-2156", "stores": 1}, {"New status": "OPEN", "Zip": "60657-4004", "stores": 1}, {"New status": "OPEN", "Zip": "60659", "stores": 1}, {"New status": "OPEN", "Zip": "60659-2608", "stores": 1}, {"New status": "OPEN", "Zip": "60659-4277", "stores": 1}, {"New status": "OPEN", "Zip": "60660", "stores": 1}, {"New status": "OPEN", "Zip": "60660-1902", "stores": 1}, {"New status": "OPEN", "Zip": "60660-2500", "stores": 1}, {"New status": "OPEN", "Zip": "60661", "stores": 1}, {"New status": "OPEN", "Zip": "60661-1106", "stores": 1}, {"New status": "OPEN", "Zip": "60661-2176", "stores": 1}, {"New status": "OPEN", "Zip": "60661-3506", "stores": 1}, {"New status": "OPEN", "Zip": "60707", "stores": 2}, {"New status": "OPEN", "Zip": "60707-2312", "stores": 1}, {"New status": "OPEN", "Zip": "60707-3431", "stores": 1}, {"New status": "OPEN", "Zip": "60827-6333", "stores": 1}, {"New status": "OPEN", "Zip": "nan", "stores": 1}]}}